[{"OBJECT_NAME":"STARLINK-3124","OBJECT_ID":"2021-104BA","EPOCH":"2026-03-09T17:44:58.844544","MEAN_MOTION":15.08842878,"ECCENTRICITY":0.00013285,"INCLINATION":53.2165,"RA_OF_ASC_NODE":218.9468,"ARG_OF_PERICENTER":95.9427,"MEAN_ANOMALY":264.1717,"EPHEMERIS_TYPE":0,"CLASSIFICATION_TYPE":"U","NORAD_CAT_ID":49456,"ELEMENT_SET_NO":999,"REV_AT_EPOCH":23878,"BSTAR":-0.00021767928,"MEAN_MOTION_DOT":-3.751e-5,"MEAN_MOTION_DDOT":0},{"OBJECT_NAME":"OBJECT C","OBJECT_ID":"2025-108C","EPOCH":"2026-03-09T22:37:32.676384","MEAN_MOTION":15.13945167,"ECCENTRICITY":0.00134886,"INCLINATION":97.4753,"RA_OF_ASC_NODE":145.0046,"ARG_OF_PERICENTER":355.6312,"MEAN_ANOMALY":4.48,"EPHEMERIS_TYPE":0,"CLASSIFICATION_TYPE":"U","NORAD_CAT_ID":64089,"ELEMENT_SET_NO":999,"REV_AT_EPOCH":4425,"BSTAR":0.00040295487,"MEAN_MOTION_DOT":7.256e-5,"MEAN_MOTION_DDOT":0}]
